#aV2012  1 11  0  0   .00000000      96 DD+AD WGS84 FIT  NGA
## 1670 259200.00000000   900.00000000 55937  .0000000000000
+   31     1  2  3  4  5  6  7  8  9 10 11 12 13 14 15 16 17
+         18 19 20 21 22 23 25 26 27 28 29 30 31 32  0  0  0
+          0  0  0  0  0  0  0  0  0  0  0  0  0  0  0  0  0
+          0  0  0  0  0  0  0  0  0  0  0  0  0  0  0  0  0
+          0  0  0  0  0  0  0  0  0  0  0  0  0  0  0  0  0
++         0  0  0  0  0  0  0  0  0  0  0  0  0  0  0  0  0
++         0  0  0  0  0  0  0  0  0  0  0  0  0  0  0  0  0
++         0  0  0  0  0  0  0  0  0  0  0  0  0  0  0  0  0
++         0  0  0  0  0  0  0  0  0  0  0  0  0  0  0  0  0
++         0  0  0  0  0  0  0  0  0  0  0  0  0  0  0  0  0
%c cc cc ccc ccc cccc cccc cccc cccc ccccc ccccc ccccc ccccc
%c cc cc ccc ccc cccc cccc cccc cccc ccccc ccccc ccccc ccccc
%f  0.0000000  0.000000000  0.00000000000  0.000000000000000
%f  0.0000000  0.000000000  0.00000000000  0.000000000000000
%i    0    0    0    0      0      0      0      0         0
%i    0    0    0    0      0      0      0      0         0
/*      NGA, ST. LOUIS,MO.                                  
/*   EPHEMERIS COMPUTED FROM  3 DAYS OF DATA                
/* CCCCCCCCCCCCCCCCCCCCCCCCCCCCCCCCCCCCCCCCCCCCCCCCCCCCCCCCC
/* CCCCCCCCCCCCCCCCCCCCCCCCCCCCCCCCCCCCCCCCCCCCCCCCCCCCCCCCC
*  2012  1 11  3 30   .00000000                                                 
P  1 -20477.965283 -13670.915149  -9994.286013    176.494095                    
V  1  12843.296340   1337.897096 -28180.219683       .131835                    
P  2  -1965.229217  15774.950238  21395.856891    374.178166                    
V  2 -25919.800474  -7617.676372   2746.995117       .016460                    
P  3   6616.480206 -22501.930635 -12642.005238    820.468177                    
V  3  12381.412648  -9869.824870  25238.115687       .049851                    
P  4 -15737.411400   9632.815544  18976.982103     59.833068                    
V  4 -22982.095063  -8851.218634 -14056.244030       .113193                    
P  5   1635.027437  25837.284993   5603.904847   -269.080294                    
V  5  -4587.205294  -6338.574897  30553.980137      -.046569                    
P  6  11764.150459 -21727.054643  -9246.006745     23.358978                    
V  6  10888.767751  -6204.134344  28301.552887       .030783                    
P  7 -25764.126252  -5992.490813  -3549.436620     49.144277                    
V  7  -3601.667325  -3432.383616  31496.398551       .025337                    
P  8 -22639.999219    443.673988 -14280.901246       .335672                    
V  8 -16181.222320  -7823.851513  24750.788396       .001722                    
P  9  17280.518797  14962.339620 -14048.036144    131.006578                    
V  9 -16593.600800  -3461.385059 -25110.943451       .026000                    
P 10 -11381.204237  13830.539189  19240.951646    -25.208735                    
V 10  -6535.115878 -24320.773517  13839.132666      -.011971                    
P 11 -16047.515544 -14014.672153 -16415.467461   -221.730778                    
V 11  20421.216245  -1998.017331 -18349.321129      -.035640                    
P 12  11495.948715  21614.821077  10529.842978     45.879256                    
V 12    748.072196  13381.609531 -28133.473289       .022249                    
P 13 -19829.989281    567.545752  17563.948945    231.385145                    
V 13  17149.617286 -14587.731657  19599.429455      -.021071                    
P 14  21239.908141 -15719.654309  -1610.991540    189.536411                    
V 14   -314.130084   3219.113646 -32194.589914       .015451                    
P 15   6148.764891  14999.080222 -21007.666797    -94.861558                    
V 15 -19939.275161  17865.449897   7120.558645       .007367                    
P 16   -182.465190 -25606.849403   6436.126066   -218.264603                    
V 16   3794.391866   7656.420165  30938.150597      -.017823                    
P 17 -21615.704907  14550.102991  -4264.852213    155.521331                    
V 17   2391.218873  -5899.395519 -31334.902915      -.022799                    
P 18  16279.041056   3799.211100 -20364.065712    176.171935                    
V 18   4567.454723  26298.317986   8056.191069       .018346                    
P 19  -2205.710830 -16507.385362 -20641.556999   -224.351073                    
V 19  21474.223535 -15089.769094  10155.212705      -.038697                    
P 20 -13857.212390 -19617.907994  11260.678665     59.815444                    
V 20   -655.852560 -14903.957609 -26322.063936       .007847                    
P 21  25684.014185   2972.089359  -6847.005087   -196.799065                    
V 21   7758.851892   5827.845985  29079.153265      -.025689                    
P 22  12258.652037 -12919.980492 -19498.563129    142.996996                    
V 22   6599.635168  24463.339304 -12065.670342      -.001237                    
P 23 -13400.972145  -8135.013358  21508.312119    242.976321                    
V 23  20105.316741 -18315.333673   5252.860039      -.033245                    
P 25  15536.215650  11596.720356  18150.604307     31.002159                    
V 25   3790.192455  22794.395770 -17744.809859       .002170                    
P 26  -7282.196652  19627.424995 -16709.249685   -294.598203                    
V 26 -16843.664935  11219.530195  21675.922346      -.141510                    
P 27  11903.670423  15437.769472 -17599.273057    345.056142                    
V 27 -22923.785561  -4996.473832 -18779.228609       .039903                    
P 28 -12724.493722   9105.717584 -20874.787785    101.574807                    
V 28  -5487.676478 -27254.168209  -8560.028531       .035701                    
P 29  19193.890604    594.176984  18396.990860    274.006397                    
V 29 -16845.057762  16073.011382  17153.625092       .035842                    
P 30   4140.933853 -21250.979194  15023.677337     -5.279901                    
V 30   8238.073202  18051.159203  22738.778222      -.127188                    
P 31  13294.280638 -10279.962377  20829.600661    194.033772                    
V 31  24345.205494   8763.904891 -11100.844238       .048590                    
P 32  -7351.733428 -25195.485250   5694.337070   -390.851548                    
V 32   1648.991807  -7123.581142 -30182.776329      -.056673                    
EOF
